{"type": "FeatureCollection", "features": [ {"type": "Feature", "properties": {"norad_id": 54234, "name": "NOAA 21 (JPSS-2)", "group": "weather", "lat": -0.43091675011290453, "lon": -65.60510181163215, "alt_km": 828.7215859788803, "timestamp": "2025-12-24T03:53:29.285389+00:00", "meta": {"OBJECT_NAME": "NOAA 21 (JPSS-2)", "OBJECT_ID": "2022-150A", "EPOCH": "2025-12-23T19:26:06.861696", "MEAN_MOTION": 14.19527064, "ECCENTRICITY": 0.0001721, "INCLINATION": 98.7477, "RA_OF_ASC_NODE": 293.9806, "ARG_OF_PERICENTER": 15.4331, "MEAN_ANOMALY": 344.6897, "EPHEMERIS_TYPE": 0, "CLASSIFICATION_TYPE": "U", "NORAD_CAT_ID": 54234, "ELEMENT_SET_NO": 999, "REV_AT_EPOCH": 16166, "BSTAR": 6.1527e-05, "MEAN_MOTION_DOT": 8.6e-07, "MEAN_MOTION_DDOT": 0}, "tle": {"line1": "1 54234U 22150A   25357.80980164  .00000086  00000+0  61527-4 0  9994", "line2": "2 54234  98.7477 293.9806 0001721  15.4331 344.6897 14.19527064161667"}}, "geometry": {"type": "Point", "coordinates": [-65.60510181163215, -0.43091675011290453]}}, {"type": "Feature", "properties": {"norad_id": 54743, "name": "METEOSAT-12 (MTG-I1)", "group": "weather", "lat": 0.5829891401775957, "lon": 150.97351328241007, "alt_km": 35789.06651129175, "timestamp": "2025-12-24T03:53:29.285401+00:00", "meta": {"OBJECT_NAME": "METEOSAT-12 (MTG-I1)", "OBJECT_ID": "2022-170C", "EPOCH": "2025-12-23T18:15:59.783040", "MEAN_MOTION": 1.00270834, "ECCENTRICITY": 0.0001564, "INCLINATION": 0.6982, "RA_OF_ASC_NODE": 25.4205, "ARG_OF_PERICENTER": 240.5599, "MEAN_ANOMALY": 100.2466, "EPHEMERIS_TYPE": 0, "CLASSIFICATION_TYPE": "U", "NORAD_CAT_ID": 54743, "ELEMENT_SET_NO": 999, "REV_AT_EPOCH": 1121, "BSTAR": 0, "MEAN_MOTION_DOT": 1.3e-07, "MEAN_MOTION_DDOT": 0}, "tle": {"line1": "1 54743U 22170C   25357.76110860  .00000013  00000+0  00000+0 0  9998", "line2": "2 54743   0.6982  25.4205 0001564 240.5599 100.2466  1.00270834 11217"}}, "geometry": {"type": "Point", "coordinates": [150.97351328241007, 0.5829891401775957]}}, {"type": "Feature", "properties": {"norad_id": 55973, "name": "TIANMU-1 03", "group": "weather", "lat": -55.0925362095699, "lon": -29.764351965444902, "alt_km": 451.8463732844448, "timestamp": "2025-12-24T03:53:29.285412+00:00", "meta": {"OBJECT_NAME": "TIANMU-1 03", "OBJECT_ID": "2023-039A", "EPOCH": "2025-12-23T20:38:19.980672", "MEAN_MOTION": 15.41236851, "ECCENTRICITY": 0.0003867, "INCLINATION": 97.5112, "RA_OF_ASC_NODE": 160.8244, "ARG_OF_PERICENTER": 28.8575, "MEAN_ANOMALY": 331.2885, "EPHEMERIS_TYPE": 0, "CLASSIFICATION_TYPE": "U", "NORAD_CAT_ID": 55973, "ELEMENT_SET_NO": 999, "REV_AT_EPOCH": 15377, "BSTAR": 0.00036969, "MEAN_MOTION_DOT": 0.00015291, "MEAN_MOTION_DDOT": 0}, "tle": {"line1": "1 55973U 23039A   25357.85995348  .00015291  00000+0  36969-3 0  9992", "line2": "2 55973  97.5112 160.8244 0003867  28.8575 331.2885 15.41236851153779"}}, "geometry": {"type": "Point", "coordinates": [-29.764351965444902, -55.0925362095699]}}, {"type": "Feature", "properties": {"norad_id": 55974, "name": "TIANMU-1 04", "group": "weather", "lat": 3.50530540180533, "lon": 159.85876739011306, "alt_km": 441.14783998763323, "timestamp": "2025-12-24T03:53:29.285423+00:00", "meta": {"OBJECT_NAME": "TIANMU-1 04", "OBJECT_ID": "2023-039B", "EPOCH": "2025-12-23T20:05:12.948288", "MEAN_MOTION": 15.41578927, "ECCENTRICITY": 0.0004477, "INCLINATION": 97.5044, "RA_OF_ASC_NODE": 159.9872, "ARG_OF_PERICENTER": 22.0399, "MEAN_ANOMALY": 338.104, "EPHEMERIS_TYPE": 0, "CLASSIFICATION_TYPE": "U", "NORAD_CAT_ID": 55974, "ELEMENT_SET_NO": 999, "REV_AT_EPOCH": 15377, "BSTAR": 0.0003693, "MEAN_MOTION_DOT": 0.00015451, "MEAN_MOTION_DDOT": 0}, "tle": {"line1": "1 55974U 23039B   25357.83695542  .00015451  00000+0  36930-3 0  9990", "line2": "2 55974  97.5044 159.9872 0004477  22.0399 338.1040 15.41578927153770"}}, "geometry": {"type": "Point", "coordinates": [159.85876739011306, 3.50530540180533]}}, {"type": "Feature", "properties": {"norad_id": 55975, "name": "TIANMU-1 05", "group": "weather", "lat": 19.55351506862871, "lon": 158.12902250848836, "alt_km": 440.36677805317413, "timestamp": "2025-12-24T03:53:29.285433+00:00", "meta": {"OBJECT_NAME": "TIANMU-1 05", "OBJECT_ID": "2023-039C", "EPOCH": "2025-12-23T21:34:23.562048", "MEAN_MOTION": 15.41194773, "ECCENTRICITY": 0.0004005, "INCLINATION": 97.5091, "RA_OF_ASC_NODE": 160.5437, "ARG_OF_PERICENTER": 47.4419, "MEAN_ANOMALY": 312.7165, "EPHEMERIS_TYPE": 0, "CLASSIFICATION_TYPE": "U", "NORAD_CAT_ID": 55975, "ELEMENT_SET_NO": 999, "REV_AT_EPOCH": 15376, "BSTAR": 0.00036314, "MEAN_MOTION_DOT": 0.00014997, "MEAN_MOTION_DDOT": 0}, "tle": {"line1": "1 55975U 23039C   25357.89888382  .00014997  00000+0  36314-3 0  9993", "line2": "2 55975  97.5091 160.5437 0004005  47.4419 312.7165 15.41194773153767"}}, "geometry": {"type": "Point", "coordinates": [158.12902250848836, 19.55351506862871]}}, {"type": "Feature", "properties": {"norad_id": 55976, "name": "TIANMU-1 06", "group": "weather", "lat": -6.360194330797116, "lon": 162.1313388712806, "alt_km": 443.17975500249304, "timestamp": "2025-12-24T03:53:29.285443+00:00", "meta": {"OBJECT_NAME": "TIANMU-1 06", "OBJECT_ID": "2023-039D", "EPOCH": "2025-12-23T20:07:48.767232", "MEAN_MOTION": 15.41630373, "ECCENTRICITY": 0.0004258, "INCLINATION": 97.5102, "RA_OF_ASC_NODE": 160.9561, "ARG_OF_PERICENTER": 41.5889, "MEAN_ANOMALY": 318.5681, "EPHEMERIS_TYPE": 0, "CLASSIFICATION_TYPE": "U", "NORAD_CAT_ID": 55976, "ELEMENT_SET_NO": 999, "REV_AT_EPOCH": 15377, "BSTAR": 0.00037157, "MEAN_MOTION_DOT": 0.00015573, "MEAN_MOTION_DDOT": 0}, "tle": {"line1": "1 55976U 23039D   25357.83875888  .00015573  00000+0  37157-3 0  9992", "line2": "2 55976  97.5102 160.9561 0004258  41.5889 318.5681 15.41630373153778"}}, "geometry": {"type": "Point", "coordinates": [162.1313388712806, -6.360194330797116]}}, {"type": "Feature", "properties": {"norad_id": 56232, "name": "FENGYUN 3G", "group": "weather", "lat": -31.599804135306936, "lon": 137.36674317020436, "alt_km": 410.60100334035724, "timestamp": "2025-12-24T03:53:29.285456+00:00", "meta": {"OBJECT_NAME": "FENGYUN 3G", "OBJECT_ID": "2023-055A", "EPOCH": "2025-12-23T20:21:44.089344", "MEAN_MOTION": 15.54285266, "ECCENTRICITY": 0.000919, "INCLINATION": 49.9923, "RA_OF_ASC_NODE": 170.101, "ARG_OF_PERICENTER": 198.3639, "MEAN_ANOMALY": 161.6998, "EPHEMERIS_TYPE": 0, "CLASSIFICATION_TYPE": "U", "NORAD_CAT_ID": 56232, "ELEMENT_SET_NO": 999, "REV_AT_EPOCH": 15275, "BSTAR": 0.00048008, "MEAN_MOTION_DOT": 0.00031711, "MEAN_MOTION_DDOT": 0}, "tle": {"line1": "1 56232U 23055A   25357.84842696  .00031711  00000+0  48008-3 0  9997", "line2": "2 56232  49.9923 170.1010 0009190 198.3639 161.6998 15.54285266152758"}}, "geometry": {"type": "Point", "coordinates": [137.36674317020436, -31.599804135306936]}}, {"type": "Feature", "properties": {"norad_id": 57166, "name": "METEOR-M2 3", "group": "weather", "lat": 81.29797795873212, "lon": -45.29856206620097, "alt_km": 805.3975963808934, "timestamp": "2025-12-24T03:53:29.285467+00:00", "meta": {"OBJECT_NAME": "METEOR-M2 3", "OBJECT_ID": "2023-091A", "EPOCH": "2025-12-23T20:43:13.643040", "MEAN_MOTION": 14.24027356, "ECCENTRICITY": 0.000331, "INCLINATION": 98.6363, "RA_OF_ASC_NODE": 51.2077, "ARG_OF_PERICENTER": 334.5144, "MEAN_ANOMALY": 25.5871, "EPHEMERIS_TYPE": 0, "CLASSIFICATION_TYPE": "U", "NORAD_CAT_ID": 57166, "ELEMENT_SET_NO": 999, "REV_AT_EPOCH": 12956, "BSTAR": 2.3024e-05, "MEAN_MOTION_DOT": 9e-08, "MEAN_MOTION_DDOT": 0}, "tle": {"line1": "1 57166U 23091A   25357.86335235  .00000009  00000+0  23024-4 0  9990", "line2": "2 57166  98.6363  51.2077 0003310 334.5144  25.5871 14.24027356129560"}}, "geometry": {"type": "Point", "coordinates": [-45.29856206620097, 81.29797795873212]}}, {"type": "Feature", "properties": {"norad_id": 57399, "name": "TIANMU-1 07", "group": "weather", "lat": -51.8156581640905, "lon": -141.6020193908195, "alt_km": 491.61633961278403, "timestamp": "2025-12-24T03:53:29.285478+00:00", "meta": {"OBJECT_NAME": "TIANMU-1 07", "OBJECT_ID": "2023-101A", "EPOCH": "2025-12-23T20:35:31.884288", "MEAN_MOTION": 15.28222926, "ECCENTRICITY": 0.0005097, "INCLINATION": 97.2856, "RA_OF_ASC_NODE": 47.4625, "ARG_OF_PERICENTER": 53.0984, "MEAN_ANOMALY": 307.0722, "EPHEMERIS_TYPE": 0, "CLASSIFICATION_TYPE": "U", "NORAD_CAT_ID": 57399, "ELEMENT_SET_NO": 999, "REV_AT_EPOCH": 13485, "BSTAR": 0.00025867, "MEAN_MOTION_DOT": 7.044e-05, "MEAN_MOTION_DDOT": 0}, "tle": {"line1": "1 57399U 23101A   25357.85800792  .00007044  00000+0  25867-3 0  9996", "line2": "2 57399  97.2856  47.4625 0005097  53.0984 307.0722 15.28222926134851"}}, "geometry": {"type": "Point", "coordinates": [-141.6020193908195, -51.8156581640905]}}, {"type": "Feature", "properties": {"norad_id": 57400, "name": "TIANMU-1 08", "group": "weather", "lat": 52.6741240624072, "lon": 37.89841001122193, "alt_km": 471.46955380872623, "timestamp": "2025-12-24T03:53:29.285488+00:00", "meta": {"OBJECT_NAME": "TIANMU-1 08", "OBJECT_ID": "2023-101B", "EPOCH": "2025-12-23T21:22:24.429792", "MEAN_MOTION": 15.28205796, "ECCENTRICITY": 0.0007033, "INCLINATION": 97.2845, "RA_OF_ASC_NODE": 47.2904, "ARG_OF_PERICENTER": 52.4701, "MEAN_ANOMALY": 307.7177, "EPHEMERIS_TYPE": 0, "CLASSIFICATION_TYPE": "U", "NORAD_CAT_ID": 57400, "ELEMENT_SET_NO": 999, "REV_AT_EPOCH": 13485, "BSTAR": 0.00028396, "MEAN_MOTION_DOT": 7.738e-05, "MEAN_MOTION_DDOT": 0}, "tle": {"line1": "1 57400U 23101B   25357.89056053  .00007738  00000+0  28396-3 0  9996", "line2": "2 57400  97.2845  47.2904 0007033  52.4701 307.7177 15.28205796134859"}}, "geometry": {"type": "Point", "coordinates": [37.89841001122193, 52.6741240624072]}}]}